CCSDS_OMM_VERS = 2.0
CREATION_DATE  = 
ORIGINATOR     = 

OBJECT_NAME    = STARLINK-36746
OBJECT_ID      = 2026-026N
CENTER_NAME    = EARTH
REF_FRAME      = TEME
TIME_SYSTEM    = UTC
MEAN_ELEMENT_THEORY = SGP/SGP4

EPOCH          = 2026-02-22T02:38:26.966112
MEAN_MOTION    = 15.91632117
ECCENTRICITY   = .0003928
INCLINATION    = 97.2722
RA_OF_ASC_NODE = 106.9462
ARG_OF_PERICENTER = 166.7867
MEAN_ANOMALY   = 193.3511

EPHEMERIS_TYPE = 0
CLASSIFICATION_TYPE = U
NORAD_CAT_ID   = 67733
ELEMENT_SET_NO = 999
REV_AT_EPOCH   = 167
BSTAR          = .13371E-2
MEAN_MOTION_DOT = .431212E-2
MEAN_MOTION_DDOT = .73112E-4

CCSDS_OMM_VERS = 2.0
CREATION_DATE  = 
ORIGINATOR     = 

OBJECT_NAME    = STARLINK-36749
OBJECT_ID      = 2026-026P
CENTER_NAME    = EARTH
REF_FRAME      = TEME
TIME_SYSTEM    = UTC
MEAN_ELEMENT_THEORY = SGP/SGP4

EPOCH          = 2026-02-22T02:37:11.849088
MEAN_MOTION    = 15.91231486
ECCENTRICITY   = .0002011
INCLINATION    = 97.2732
RA_OF_ASC_NODE = 106.9479
ARG_OF_PERICENTER = 295.8834
MEAN_ANOMALY   = 64.2233

EPHEMERIS_TYPE = 0
CLASSIFICATION_TYPE = U
NORAD_CAT_ID   = 67734
ELEMENT_SET_NO = 999
REV_AT_EPOCH   = 167
BSTAR          = -.23341E-2
MEAN_MOTION_DOT = -.738115E-2
MEAN_MOTION_DDOT = .16952E-3

CCSDS_OMM_VERS = 2.0
CREATION_DATE  = 
ORIGINATOR     = 

OBJECT_NAME    = STARLINK-36691
OBJECT_ID      = 2026-026Q
CENTER_NAME    = EARTH
REF_FRAME      = TEME
TIME_SYSTEM    = UTC
MEAN_ELEMENT_THEORY = SGP/SGP4

EPOCH          = 2026-02-22T02:33:55.664928
MEAN_MOTION    = 15.92430221
ECCENTRICITY   = .000455
INCLINATION    = 97.2711
RA_OF_ASC_NODE = 106.9497
ARG_OF_PERICENTER = 160.7924
MEAN_ANOMALY   = 199.3523

EPHEMERIS_TYPE = 0
CLASSIFICATION_TYPE = U
NORAD_CAT_ID   = 67735
ELEMENT_SET_NO = 999
REV_AT_EPOCH   = 167
BSTAR          = .12247E-2
MEAN_MOTION_DOT = .411626E-2
MEAN_MOTION_DDOT = .67227E-4

CCSDS_OMM_VERS = 2.0
CREATION_DATE  = 
ORIGINATOR     = 

OBJECT_NAME    = STARLINK-36317
OBJECT_ID      = 2026-026R
CENTER_NAME    = EARTH
REF_FRAME      = TEME
TIME_SYSTEM    = UTC
MEAN_ELEMENT_THEORY = SGP/SGP4

EPOCH          = 2026-02-22T02:35:31.274304
MEAN_MOTION    = 15.92140603
ECCENTRICITY   = .0004535
INCLINATION    = 97.2712
RA_OF_ASC_NODE = 106.9476
ARG_OF_PERICENTER = 161.5889
MEAN_ANOMALY   = 198.5550

EPHEMERIS_TYPE = 0
CLASSIFICATION_TYPE = U
NORAD_CAT_ID   = 67736
ELEMENT_SET_NO = 999
REV_AT_EPOCH   = 167
BSTAR          = .12236E-2
MEAN_MOTION_DOT = .405143E-2
MEAN_MOTION_DDOT = .64879E-4

CCSDS_OMM_VERS = 2.0
CREATION_DATE  = 
ORIGINATOR     = 

OBJECT_NAME    = STARLINK-36330
OBJECT_ID      = 2026-026S
CENTER_NAME    = EARTH
REF_FRAME      = TEME
TIME_SYSTEM    = UTC
MEAN_ELEMENT_THEORY = SGP/SGP4

EPOCH          = 2026-02-22T02:32:52.560960
MEAN_MOTION    = 15.92592137
ECCENTRICITY   = .0004054
INCLINATION    = 97.2705
RA_OF_ASC_NODE = 106.9501
ARG_OF_PERICENTER = 164.7769
MEAN_ANOMALY   = 195.3628

EPHEMERIS_TYPE = 0
CLASSIFICATION_TYPE = U
NORAD_CAT_ID   = 67737
ELEMENT_SET_NO = 999
REV_AT_EPOCH   = 167
BSTAR          = .10902E-2
MEAN_MOTION_DOT = .369419E-2
MEAN_MOTION_DDOT = .54248E-4

CCSDS_OMM_VERS = 2.0
CREATION_DATE  = 
ORIGINATOR     = 

OBJECT_NAME    = STARLINK-36327
OBJECT_ID      = 2026-026T
CENTER_NAME    = EARTH
REF_FRAME      = TEME
TIME_SYSTEM    = UTC
MEAN_ELEMENT_THEORY = SGP/SGP4

EPOCH          = 2026-02-22T02:31:32.964960
MEAN_MOTION    = 15.92834545
ECCENTRICITY   = .0004408
INCLINATION    = 97.2709
RA_OF_ASC_NODE = 106.9523
ARG_OF_PERICENTER = 161.3097
MEAN_ANOMALY   = 198.8340

EPHEMERIS_TYPE = 0
CLASSIFICATION_TYPE = U
NORAD_CAT_ID   = 67738
ELEMENT_SET_NO = 999
REV_AT_EPOCH   = 167
BSTAR          = .10592E-2
MEAN_MOTION_DOT = .363508E-2
MEAN_MOTION_DDOT = .52694E-4

CCSDS_OMM_VERS = 2.0
CREATION_DATE  = 
ORIGINATOR     = 

OBJECT_NAME    = STARLINK-36329
OBJECT_ID      = 2026-026U
CENTER_NAME    = EARTH
REF_FRAME      = TEME
TIME_SYSTEM    = UTC
MEAN_ELEMENT_THEORY = SGP/SGP4

EPOCH          = 2026-02-22T02:23:46.542336
MEAN_MOTION    = 15.93843363
ECCENTRICITY   = .0002141
INCLINATION    = 97.2685
RA_OF_ASC_NODE = 106.9590
ARG_OF_PERICENTER = 156.4902
MEAN_ANOMALY   = 203.6472

EPHEMERIS_TYPE = 0
CLASSIFICATION_TYPE = U
NORAD_CAT_ID   = 67739
ELEMENT_SET_NO = 999
REV_AT_EPOCH   = 167
BSTAR          = -.10606E-2
MEAN_MOTION_DOT = -.384872E-2
MEAN_MOTION_DDOT = .51575E-4

CCSDS_OMM_VERS = 2.0
CREATION_DATE  = 
ORIGINATOR     = 

OBJECT_NAME    = STARLINK-36737
OBJECT_ID      = 2026-026V
CENTER_NAME    = EARTH
REF_FRAME      = TEME
TIME_SYSTEM    = UTC
MEAN_ELEMENT_THEORY = SGP/SGP4

EPOCH          = 2026-02-22T02:30:06.747264
MEAN_MOTION    = 15.93111910
ECCENTRICITY   = .0004569
INCLINATION    = 97.2704
RA_OF_ASC_NODE = 106.9532
ARG_OF_PERICENTER = 160.8299
MEAN_ANOMALY   = 199.3148

EPHEMERIS_TYPE = 0
CLASSIFICATION_TYPE = U
NORAD_CAT_ID   = 67740
ELEMENT_SET_NO = 999
REV_AT_EPOCH   = 167
BSTAR          = .11607E-2
MEAN_MOTION_DOT = .40416E-2
MEAN_MOTION_DDOT = .6535E-4

CCSDS_OMM_VERS = 2.0
CREATION_DATE  = 
ORIGINATOR     = 

OBJECT_NAME    = STARLINK-36740
OBJECT_ID      = 2026-026W
CENTER_NAME    = EARTH
REF_FRAME      = TEME
TIME_SYSTEM    = UTC
MEAN_ELEMENT_THEORY = SGP/SGP4

EPOCH          = 2026-02-22T02:25:25.605120
MEAN_MOTION    = 15.93948744
ECCENTRICITY   = .0004234
INCLINATION    = 97.2693
RA_OF_ASC_NODE = 106.9578
ARG_OF_PERICENTER = 166.1148
MEAN_ANOMALY   = 194.0245

EPHEMERIS_TYPE = 0
CLASSIFICATION_TYPE = U
NORAD_CAT_ID   = 67741
ELEMENT_SET_NO = 999
REV_AT_EPOCH   = 167
BSTAR          = .11907E-2
MEAN_MOTION_DOT = .433108E-2
MEAN_MOTION_DDOT = .75954E-4

CCSDS_OMM_VERS = 2.0
CREATION_DATE  = 
ORIGINATOR     = 

OBJECT_NAME    = STARLINK-36693
OBJECT_ID      = 2026-026X
CENTER_NAME    = EARTH
REF_FRAME      = TEME
TIME_SYSTEM    = UTC
MEAN_ELEMENT_THEORY = SGP/SGP4

EPOCH          = 2026-02-22T02:29:01.266432
MEAN_MOTION    = 15.93315725
ECCENTRICITY   = .0004581
INCLINATION    = 97.2697
RA_OF_ASC_NODE = 106.9543
ARG_OF_PERICENTER = 164.1683
MEAN_ANOMALY   = 195.9736

EPHEMERIS_TYPE = 0
CLASSIFICATION_TYPE = U
NORAD_CAT_ID   = 67742
ELEMENT_SET_NO = 999
REV_AT_EPOCH   = 167
BSTAR          = .12428E-2
MEAN_MOTION_DOT = .437363E-2
MEAN_MOTION_DDOT = .7685E-4

CCSDS_OMM_VERS = 2.0
CREATION_DATE  = 
ORIGINATOR     = 

OBJECT_NAME    = STARLINK-36717
OBJECT_ID      = 2026-026Y
CENTER_NAME    = EARTH
REF_FRAME      = TEME
TIME_SYSTEM    = UTC
MEAN_ELEMENT_THEORY = SGP/SGP4

EPOCH          = 2026-02-22T00:00:02.998944
MEAN_MOTION    = 15.93173376
ECCENTRICITY   = .0001612
INCLINATION    = 97.2688
RA_OF_ASC_NODE = 106.8480
ARG_OF_PERICENTER = 72.8389
MEAN_ANOMALY   = 64.4773

EPHEMERIS_TYPE = 0
CLASSIFICATION_TYPE = U
NORAD_CAT_ID   = 67743
ELEMENT_SET_NO = 999
REV_AT_EPOCH   = 292
BSTAR          = -.48844E-2
MEAN_MOTION_DOT = -.1695189E-1
MEAN_MOTION_DDOT = .80997E-3

CCSDS_OMM_VERS = 2.0
CREATION_DATE  = 
ORIGINATOR     = 

OBJECT_NAME    = STARLINK-36692
OBJECT_ID      = 2026-026Z
CENTER_NAME    = EARTH
REF_FRAME      = TEME
TIME_SYSTEM    = UTC
MEAN_ELEMENT_THEORY = SGP/SGP4

EPOCH          = 2026-02-22T02:27:40.068576
MEAN_MOTION    = 15.93522105
ECCENTRICITY   = .0004229
INCLINATION    = 97.2697
RA_OF_ASC_NODE = 106.9554
ARG_OF_PERICENTER = 162.8885
MEAN_ANOMALY   = 197.2534

EPHEMERIS_TYPE = 0
CLASSIFICATION_TYPE = U
NORAD_CAT_ID   = 67744
ELEMENT_SET_NO = 999
REV_AT_EPOCH   = 167
BSTAR          = .98604E-3
MEAN_MOTION_DOT = .350727E-2
MEAN_MOTION_DDOT = .49506E-4

