STARLINK-36746          
1 67733U 26026N   26053.11003433  .00431212  73112-4  13371-2 0  9991
2 67733  97.2722 106.9462 0003928 166.7867 193.3511 15.91632117  1671
STARLINK-36749          
1 67734U 26026P   26053.10916492 -.00738115  16952-3 -23341-2 0  9999
2 67734  97.2732 106.9479 0002011 295.8834  64.2233 15.91231486  1672
STARLINK-36691          
1 67735U 26026Q   26053.10689427  .00411626  67227-4  12247-2 0  9993
2 67735  97.2711 106.9497 0004550 160.7924 199.3523 15.92430221  1671
STARLINK-36317          
1 67736U 26026R   26053.10800086  .00405143  64879-4  12236-2 0  9995
2 67736  97.2712 106.9476 0004535 161.5889 198.5550 15.92140603  1675
STARLINK-36330          
1 67737U 26026S   26053.10616390  .00369419  54248-4  10902-2 0  9991
2 67737  97.2705 106.9501 0004054 164.7769 195.3628 15.92592137  1679
STARLINK-36327          
1 67738U 26026T   26053.10524265  .00363508  52694-4  10592-2 0  9992
2 67738  97.2709 106.9523 0004408 161.3097 198.8340 15.92834545  1679
STARLINK-36329          
1 67739U 26026U   26053.09984424 -.00384872  51575-4 -10606-2 0  9990
2 67739  97.2685 106.9590 0002141 156.4902 203.6472 15.93843363  1679
STARLINK-36737          
1 67740U 26026V   26053.10424476  .00404160  65350-4  11607-2 0  9999
2 67740  97.2704 106.9532 0004569 160.8299 199.3148 15.93111910  1670
STARLINK-36740          
1 67741U 26026W   26053.10099080  .00433108  75954-4  11907-2 0  9997
2 67741  97.2693 106.9578 0004234 166.1148 194.0245 15.93948744  1672
STARLINK-36693          
1 67742U 26026X   26053.10348688  .00437363  76850-4  12428-2 0  9991
2 67742  97.2697 106.9543 0004581 164.1683 195.9736 15.93315725  1678
STARLINK-36717          
1 67743U 26026Y   26053.00003471 -.01695189  80997-3 -48844-2 0  9991
2 67743  97.2688 106.8480 0001612  72.8389  64.4773 15.93173376  2922
STARLINK-36692          
1 67744U 26026Z   26053.10254709  .00350727  49506-4  98604-3 0  9990
2 67744  97.2697 106.9554 0004229 162.8885 197.2534 15.93522105  1673
